[{"OBJECT_NAME":"LEMUR-2-TEODOR","OBJECT_ID":"2025-276DG","EPOCH":"2026-03-09T22:32:17.371680","MEAN_MOTION":15.19870523,"ECCENTRICITY":0.00021641,"INCLINATION":97.4221,"RA_OF_ASC_NODE":144.2904,"ARG_OF_PERICENTER":115.2922,"MEAN_ANOMALY":244.8537,"EPHEMERIS_TYPE":0,"CLASSIFICATION_TYPE":"U","NORAD_CAT_ID":66768,"ELEMENT_SET_NO":999,"REV_AT_EPOCH":1536,"BSTAR":0.00038251651,"MEAN_MOTION_DOT":8.143e-5,"MEAN_MOTION_DDOT":0},{"OBJECT_NAME":"OBJECT AF","OBJECT_ID":"2025-313AF","EPOCH":"2026-03-09T22:40:24.568320","MEAN_MOTION":15.21283036,"ECCENTRICITY":0.00138127,"INCLINATION":97.398,"RA_OF_ASC_NODE":145.1678,"ARG_OF_PERICENTER":3.4276,"MEAN_ANOMALY":356.7052,"EPHEMERIS_TYPE":0,"CLASSIFICATION_TYPE":"U","NORAD_CAT_ID":67277,"ELEMENT_SET_NO":999,"REV_AT_EPOCH":1085,"BSTAR":0.00037771518,"MEAN_MOTION_DOT":8.4e-5,"MEAN_MOTION_DDOT":0}]
